[{"OBJECT_NAME":"STARLINK-11717 [DTC]","OBJECT_ID":"2025-111D","EPOCH":"2026-03-09T20:35:22.163424","MEAN_MOTION":15.70839635,"ECCENTRICITY":0.00013695,"INCLINATION":42.9982,"RA_OF_ASC_NODE":333.0077,"ARG_OF_PERICENTER":225.6631,"MEAN_ANOMALY":134.4125,"EPHEMERIS_TYPE":0,"CLASSIFICATION_TYPE":"U","NORAD_CAT_ID":64126,"ELEMENT_SET_NO":999,"REV_AT_EPOCH":4661,"BSTAR":0.0018794,"MEAN_MOTION_DOT":0.00248036,"MEAN_MOTION_DDOT":0},{"OBJECT_NAME":"COSMOS 921 DEB","OBJECT_ID":"1977-055C","EPOCH":"2026-03-09T22:42:10.805760","MEAN_MOTION":15.70063735,"ECCENTRICITY":0.00183564,"INCLINATION":75.8082,"RA_OF_ASC_NODE":161.9867,"ARG_OF_PERICENTER":333.9317,"MEAN_ANOMALY":26.0991,"EPHEMERIS_TYPE":0,"CLASSIFICATION_TYPE":"U","NORAD_CAT_ID":39690,"ELEMENT_SET_NO":999,"REV_AT_EPOCH":65481,"BSTAR":0.0010474937,"MEAN_MOTION_DOT":0.0012919,"MEAN_MOTION_DDOT":0}]
